OBJECT_NAME,OBJECT_ID,EPOCH,MEAN_MOTION,ECCENTRICITY,INCLINATION,RA_OF_ASC_NODE,ARG_OF_PERICENTER,MEAN_ANOMALY,EPHEMERIS_TYPE,CLASSIFICATION_TYPE,NORAD_CAT_ID,ELEMENT_SET_NO,REV_AT_EPOCH,BSTAR,MEAN_MOTION_DOT,MEAN_MOTION_DDOT
IRIDIUM 135,2017-083A,2026-07-07T07:33:07.117344,14.34218125,.00021853,86.3982,313.6011,93.3151,266.8295,0,U,43070,999,44703,.11890485E-4,.53E-6,0
IRIDIUM 138,2017-083B,2026-07-07T08:09:39.034368,14.34218298,.00021027,86.3994,313.2889,89.5450,270.5986,0,U,43071,999,44702,.13049998E-4,.56E-6,0
IRIDIUM 116,2017-083C,2026-07-07T09:04:27.011424,14.34219138,.00023499,86.3981,313.5601,101.0175,259.1286,0,U,43072,999,44706,.86805653E-4,.263E-5,0
IRIDIUM 130,2017-083D,2026-07-07T06:38:19.008960,14.34218364,.00021433,86.3989,313.8797,100.3823,259.7615,0,U,43073,999,44699,.23577096E-4,.86E-6,0
IRIDIUM 151,2017-083E,2026-07-07T07:42:15.003936,14.34218717,.00022261,86.3985,313.6424,94.2224,265.9226,0,U,43074,999,44702,.27720459E-4,.97E-6,0
IRIDIUM 134,2017-083F,2026-07-07T08:37:03.106272,14.34217239,.00020635,86.3981,313.6347,95.3322,264.8109,0,U,43075,999,44699,-.34221334E-4,-.76E-6,0
IRIDIUM 137,2017-083G,2026-07-07T08:55:19.248384,14.34216552,.00026356,86.3985,313.7225,97.5649,262.5847,0,U,43076,999,44706,.77757729E-4,.238E-5,0
IRIDIUM 141,2017-083H,2026-07-07T07:05:43.107648,14.34218090,.0002184,86.3980,313.5837,92.1651,267.9794,0,U,43077,999,44705,.1237145E-4,.54E-6,0
IRIDIUM 153,2017-083J,2026-07-07T05:56:51.347328,14.34216609,.00021029,86.3964,282.0844,95.1851,264.9585,0,U,43078,999,44815,.79338317E-4,.242E-5,0
IRIDIUM 131,2017-083K,2026-07-07T08:27:55.134144,14.34217683,.00021306,86.3984,313.7473,93.2844,266.8596,0,U,43079,999,44699,-.6992494E-5,0,0
IRIDIUM 144,2018-030A,2026-07-07T06:05:59.407584,14.34217924,.00023497,86.3962,282.0101,97.9104,262.2358,0,U,43249,999,43301,.16710826E-4,.67E-6,0
IRIDIUM 149,2018-030B,2026-07-07T04:34:39.398592,14.34222789,.00025756,86.3933,282.0073,75.2304,284.9177,0,U,43250,999,43302,.56343577E-4,.178E-5,0
IRIDIUM 157,2018-030C,2026-07-07T05:02:03.310656,14.34218394,.00022593,86.3965,282.0494,95.3867,264.7586,0,U,43251,999,43300,.1842908E-4,.71E-6,0
IRIDIUM 140,2018-030D,2026-07-07T05:29:27.154464,14.34219261,.00022376,86.3962,282.0536,95.8543,264.2908,0,U,43252,999,43306,.42393163E-4,.139E-5,0
IRIDIUM 145,2018-030E,2026-07-07T05:11:10.874112,14.34216769,.0002375,86.3962,282.0312,102.6946,257.4515,0,U,43253,999,43299,.28870494E-4,.101E-5,0
IRIDIUM 146,2018-030F,2026-07-07T06:24:15.234336,14.34218807,.00023401,86.3962,282.0221,97.8773,262.2689,0,U,43254,999,43301,.24221033E-4,.88E-6,0
IRIDIUM 148,2018-030G,2026-07-07T05:38:35.400480,14.34217551,.00023655,86.3966,282.0790,95.8923,264.2542,0,U,43255,999,43304,.54082692E-4,.171E-5,0
IRIDIUM 142,2018-030H,2026-07-07T04:52:55.403328,14.34216292,.0002336,86.3962,281.9803,99.3967,260.7493,0,U,43256,999,43300,.79962686E-4,.244E-5,0
IRIDIUM 150,2018-030J,2026-07-07T05:47:43.262016,14.34218680,.00022314,86.3963,282.0815,96.3515,263.7935,0,U,43257,999,43303,.25813305E-4,.92E-6,0
IRIDIUM 143,2018-030K,2026-07-07T05:20:19.231584,14.34217760,.00022798,86.3968,282.1828,97.7387,262.4067,0,U,43258,999,43296,.32737152E-4,.111E-5,0
IRIDIUM 161,2018-047C,2026-07-06T17:17:12.571296,14.43283247,.00023893,86.4471,80.3035,79.2434,280.9035,0,U,43478,999,42795,.75089977E-4,.273E-5,0
IRIDIUM 152,2018-047D,2026-07-07T03:00:34.997184,14.34217994,.00021823,86.3946,79.9954,81.9953,278.1490,0,U,43479,999,42534,.68497485E-4,.212E-5,0
IRIDIUM 147,2018-047E,2026-07-06T17:06:53.835840,14.34217455,.00022814,86.3948,80.1733,87.9808,272.1649,0,U,43480,999,42528,.69817299E-4,.215E-5,0
IRIDIUM 110,2018-047F,2026-07-06T17:16:02.116416,14.34218959,.00023132,86.3950,80.2631,76.3409,283.8044,0,U,43481,999,42527,.76781674E-4,.235E-5,0
IRIDIUM 162,2018-047G,2026-07-07T03:07:09.287040,14.43282238,.00022237,86.4470,80.0230,84.0325,276.1130,0,U,43482,999,42800,.72850886E-4,.265E-5,0
IRIDIUM 160,2018-061A,2026-07-07T02:00:50.516928,14.34213932,.00025238,86.3945,48.4757,85.2920,274.8564,0,U,43569,999,41622,.39494906E-4,.13E-5,0
IRIDIUM 166,2018-061B,2026-07-07T00:56:54.396672,14.34217934,.00022352,86.3943,48.4446,89.2418,270.9034,0,U,43570,999,41624,.2830175E-5,.28E-6,0
IRIDIUM 158,2018-061C,2026-07-07T00:11:14.303616,14.34217583,.00021254,86.3943,48.4678,85.1897,274.9542,0,U,43571,999,41620,.45561005E-4,.147E-5,0
IRIDIUM 165,2018-061D,2026-07-06T16:25:26.221728,14.34218995,.00021826,86.3945,48.6499,89.8150,270.3296,0,U,43572,999,41618,.33268476E-4,.113E-5,0
IRIDIUM 155,2018-061E,2026-07-06T15:30:38.154816,14.34217313,.00021379,86.3941,48.5339,87.7088,272.4353,0,U,43573,999,41614,.80424311E-4,.245E-5,0
